DMSP 5D-3 F16 (USA 172) 
1 28054U 03048A   26159.87101852  .00000023  00000+0  35492-4 0  9990
2 28054  98.9892 183.6442 0007351 162.0357 170.4843 14.14482502168300
METEOSAT-9 (MSG-2)      
1 28912U 05049B   26159.78055565  .00000137  00000+0  00000+0 0  9993
2 28912   9.3415  54.2486 0001700 350.9221 178.6781  1.00268863  6913
DMSP 5D-3 F17 (USA 191) 
1 29522U 06050A   26159.82575786  .00000046  00000+0  45897-4 0  9998
2 29522  98.7377 166.5669 0011317  80.9122 279.3331 14.14991995 11245
FENGYUN 3A              
1 32958U 08026A   26159.80074574  .00000078  00000+0  57556-4 0  9997
2 32958  98.6881 100.7909 0009230 145.8494 214.3278 14.19569456934210
GOES 14                 
1 35491U 09033A   26159.80054622 -.00000241  00000+0  00000+0 0  9993
2 35491   1.6674  83.1453 0001940   4.9840 243.8894  1.00113893  6506
DMSP 5D-3 F18 (USA 210) 
1 35951U 09057A   26159.79657701  .00000269  00000+0  16248-3 0  9999
2 35951  98.9034 140.5841 0009871 276.3230  83.6818 14.14892199858406
EWS-G2 (GOES 15)        
1 36411U 10008A   26159.85895089  .00000035  00000+0  00000+0 0  9995
2 36411   1.2538  83.0007 0005426  38.2219 148.8510  1.00275826 59558
COMS 1                  
1 36744U 10032A   26154.99142485 -.00000334  00000+0  00000+0 0  9999
2 36744   4.7750  75.5286 0001016   4.5847 297.3769  1.00270643 50953
FENGYUN 3B              
1 37214U 10059A   26159.91115657  .00000079  00000+0  64204-4 0  9995
2 37214  98.9622 205.8904 0021454 207.9264 329.7915 14.14840127806258
SUOMI NPP               
1 37849U 11061A   26159.81172500  .00000082  00000+0  60093-4 0  9998
2 37849  98.7952 100.7451 0001991  25.3568 334.7705 14.19515744757256
METEOSAT-10 (MSG-3)     
1 38552U 12035B   26159.34375716  .00000010  00000+0  00000+0 0  9992
2 38552   4.6498  61.0570 0001616 335.3251 344.3203  1.00275798 50767
METOP-B                 
1 38771U 12049A   26159.81305135  .00000095  00000+0  63500-4 0  9992
2 38771  98.6507 211.4790 0002722  39.1701 320.9673 14.21430451712073
INSAT-3D                
1 39216U 13038B   26159.79716619 -.00000322  00000+0  00000+0 0  9991
2 39216   1.9033  82.6489 0000784 318.0387 272.9854  1.00273715 46996
FENGYUN 3C              
1 39260U 13052A   26159.84568344  .00000090  00000+0  66687-4 0  9991
2 39260  98.4975 134.1037 0015625  50.4154 309.8398 14.15753211657380
METEOR-M 2              
1 40069U 14037A   26159.83957269  .00000344  00000+0  17668-3 0  9997
2 40069  98.5114 135.8737 0006994  64.5722 295.6179 14.21459807618136
HIMAWARI-8              
1 40267U 14060A   26159.84027778 -.00000259  00000+0  00000+0 0  9991
2 40267   0.0136 319.3355 0000818 138.5674 242.4936  1.00270961 42676
FENGYUN 2G              
1 40367U 14090A   26159.86966831 -.00000287  00000+0  00000+0 0  9990
2 40367   5.6171  72.9157 0003416 153.8778  83.1535  1.00276806 41916
METEOSAT-11 (MSG-4)     
1 40732U 15034A   26159.77335938  .00000080  00000+0  00000+0 0  9993
2 40732   3.1812  71.1575 0001706   6.0325 107.8171  1.00277703  7132
ELEKTRO-L 2             
1 41105U 15074A   26159.05543303 -.00000103  00000+0  00000+0 0  9997
2 41105   6.6705  70.6343 0001134 284.8984 266.3917  1.00272046 38414
SENTINEL-3A             
1 41335U 16011A   26159.80098066  .00000104  00000+0  60883-4 0  9998
2 41335  98.6250 227.3047 0001349 104.4446 255.6884 14.26737760536862
INSAT-3DR               
1 41752U 16054A   26159.78610234 -.00000060  00000+0  00000+0 0  9994
2 41752   0.0835  87.5770 0010429 186.7504 339.8309  1.00270569 35731
HIMAWARI-9              
1 41836U 16064A   26159.79614505 -.00000258  00000+0  00000+0 0  9993
2 41836   0.0290 162.7360 0000866 316.1687 205.6645  1.00272610 35120
GOES 16                 
1 41866U 16071A   26159.67950005 -.00000075  00000+0  00000+0 0  9996
2 41866   0.3179  85.6150 0000432 316.4104 354.9928  1.00270645 35014
FENGYUN 4A              
1 41882U 16077A   26159.86733422 -.00000340  00000+0  00000+0 0  9998
2 41882   2.3007  80.3747 0008281 151.4017 101.4918  1.00273778 34842
CYGFM05                 
1 41884U 16078A   26159.71320851  .00025253  00000+0  34675-3 0  9991
2 41884  34.9575 316.6887 0006934  63.1251 297.0181 15.56294083527431
CYGFM04                 
1 41885U 16078B   26159.70992064  .00030079  00000+0  34473-3 0  9990
2 41885  34.9328 284.8222 0005954 110.7141 249.4223 15.61038762527675
CYGFM02                 
1 41886U 16078C   26159.72664299  .00035163  00000+0  35915-3 0  9990
2 41886  34.9407 279.4912 0006918 112.4011 247.7448 15.63951377527843
CYGFM01                 
1 41887U 16078D   26159.76970558  .00025703  00000+0  34425-3 0  9997
2 41887  34.9406 317.4400 0006792  56.6388 303.4986 15.56959563527398
CYGFM08                 
1 41888U 16078E   26159.80750089  .00027449  00000+0  33277-3 0  9991
2 41888  34.9435 296.9866 0007819  92.5391 267.6229 15.59575663527661
CYGFM07                 
1 41890U 16078G   26159.76717485  .00029388  00000+0  35491-3 0  9996
2 41890  34.9448 285.6049 0006371 110.5312 249.6097 15.59678638527683
CYGFM03                 
1 41891U 16078H   26159.73813550  .00029392  00000+0  35512-3 0  9993
2 41891  34.9404 287.7367 0005871  96.5026 263.6367 15.59670192527651
